{
  "type": "FeatureCollection",
  "features": [
    {
      "type": "Feature",
      "properties": {
        "norad_id": 34079,
        "name": "IRIDIUM 33 DEB",
        "group": "iridium-33-debris",
        "lat": 78.12705479829587,
        "lon": 27.25615938278845,
        "alt_km": 609.454082808641,
        "timestamp": "2025-12-10T09:57:45.083025+00:00",
        "meta_object_name": "IRIDIUM 33 DEB",
        "meta_object_id": "1997-051CN",
        "meta_epoch": "2025-12-10T01:46:30.105120",
        "meta_mean_motion": 14.83410874,
        "meta_eccentricity": 0.0005944,
        "meta_inclination": 86.3776,
        "meta_ra_of_asc_node": 9.8742,
        "meta_arg_of_pericenter": 16.6843,
        "meta_mean_anomaly": 41.3467,
        "meta_ephemeris_type": 0,
        "meta_classification_type": "U",
        "meta_norad_cat_id": 34079,
        "meta_element_set_no": 999,
        "meta_rev_at_epoch": 88938,
        "meta_bstar": 0.0021847,
        "meta_mean_motion_dot": 0.00017982,
        "meta_mean_motion_ddot": 0,
        "tle_line1": "1 34079U 97051CN  25344.07395955  .00017982  00000+0  21847-2 0  9996",
        "tle_line2": "2 34079  86.3776   9.8742 0005944  16.6843  41.3467 14.83410874889383"
      },
      "geometry": {
        "type": "Point",
        "coordinates": [
          27.25615938278845,
          78.12705479829587
        ]
      }
    },
    {
      "type": "Feature",
      "properties": {
        "norad_id": 34088,
        "name": "IRIDIUM 33 DEB",
        "group": "iridium-33-debris",
        "lat": 74.98082110482603,
        "lon": -161.83857207419427,
        "alt_km": 586.5260703240274,
        "timestamp": "2025-12-10T09:57:45.083036+00:00",
        "meta_object_name": "IRIDIUM 33 DEB",
        "meta_object_id": "1997-051CX",
        "meta_epoch": "2025-12-10T03:18:56.012256",
        "meta_mean_motion": 14.91176406,
        "meta_eccentricity": 0.0005482,
        "meta_inclination": 86.3845,
        "meta_ra_of_asc_node": 31.9191,
        "meta_arg_of_pericenter": 185.8656,
        "meta_mean_anomaly": 232.9656,
        "meta_ephemeris_type": 0,
        "meta_classification_type": "U",
        "meta_norad_cat_id": 34088,
        "meta_element_set_no": 999,
        "meta_rev_at_epoch": 88703,
        "meta_bstar": 0.003592,
        "meta_mean_motion_dot": 0.0003583,
        "meta_mean_motion_ddot": 0,
        "tle_line1": "1 34088U 97051CX  25344.13814829  .00035830  00000+0  35920-2 0  9998",
        "tle_line2": "2 34088  86.3845  31.9191 0005482 185.8656 232.9656 14.91176406887039"
      },
      "geometry": {
        "type": "Point",
        "coordinates": [
          -161.83857207419427,
          74.98082110482603
        ]
      }
    },
    {
      "type": "Feature",
      "properties": {
        "norad_id": 34091,
        "name": "IRIDIUM 33 DEB",
        "group": "iridium-33-debris",
        "lat": 10.61839709792107,
        "lon": 68.58547093354281,
        "alt_km": 617.8184953154232,
        "timestamp": "2025-12-10T09:57:45.083046+00:00",
        "meta_object_name": "IRIDIUM 33 DEB",
        "meta_object_id": "1997-051DA",
        "meta_epoch": "2025-12-09T06:21:21.737088",
        "meta_mean_motion": 14.81387493,
        "meta_eccentricity": 0.0033239,
        "meta_inclination": 86.3413,
        "meta_ra_of_asc_node": 68.4246,
        "meta_arg_of_pericenter": 305.7588,
        "meta_mean_anomaly": 54.0544,
        "meta_ephemeris_type": 0,
        "meta_classification_type": "U",
        "meta_norad_cat_id": 34091,
        "meta_element_set_no": 999,
        "meta_rev_at_epoch": 87815,
        "meta_bstar": 0.0066531,
        "meta_mean_motion_dot": 0.00052856,
        "meta_mean_motion_ddot": 0,
        "tle_line1": "1 34091U 97051DA  25343.26483492  .00052856  00000+0  66531-2 0  9992",
        "tle_line2": "2 34091  86.3413  68.4246 0033239 305.7588  54.0544 14.81387493878159"
      },
      "geometry": {
        "type": "Point",
        "coordinates": [
          68.58547093354281,
          10.61839709792107
        ]
      }
    },
    {
      "type": "Feature",
      "properties": {
        "norad_id": 34097,
        "name": "IRIDIUM 33 DEB",
        "group": "iridium-33-debris",
        "lat": -69.80665172836844,
        "lon": -7.976517236838002,
        "alt_km": 772.3806088154361,
        "timestamp": "2025-12-10T09:57:45.083056+00:00",
        "meta_object_name": "IRIDIUM 33 DEB",
        "meta_object_id": "1997-051DG",
        "meta_epoch": "2025-12-10T01:54:58.988160",
        "meta_mean_motion": 14.34741967,
        "meta_eccentricity": 0.0082878,
        "meta_inclination": 86.2003,
        "meta_ra_of_asc_node": 2.5814,
        "meta_arg_of_pericenter": 10.8619,
        "meta_mean_anomaly": 349.4341,
        "meta_ephemeris_type": 0,
        "meta_classification_type": "U",
        "meta_norad_cat_id": 34097,
        "meta_element_set_no": 999,
        "meta_rev_at_epoch": 87081,
        "meta_bstar": 0.0018997,
        "meta_mean_motion_dot": 5.613e-05,
        "meta_mean_motion_ddot": 0,
        "tle_line1": "1 34097U 97051DG  25344.07984940  .00005613  00000+0  18997-2 0  9994",
        "tle_line2": "2 34097  86.2003   2.5814 0082878  10.8619 349.4341 14.34741967870810"
      },
      "geometry": {
        "type": "Point",
        "coordinates": [
          -7.976517236838002,
          -69.80665172836844
        ]
      }
    },
    {
      "type": "Feature",
      "properties": {
        "norad_id": 34145,
        "name": "IRIDIUM 33 DEB",
        "group": "iridium-33-debris",
        "lat": 42.10824597258648,
        "lon": 150.12860584455674,
        "alt_km": 715.7896840203503,
        "timestamp": "2025-12-10T09:57:45.083067+00:00",
        "meta_object_name": "IRIDIUM 33 DEB",
        "meta_object_id": "1997-051DY",
        "meta_epoch": "2025-12-09T10:01:09.026976",
        "meta_mean_motion": 14.42251473,
        "meta_eccentricity": 0.00556161,
        "meta_inclination": 86.2119,
        "meta_ra_of_asc_node": 334.0058,
        "meta_arg_of_pericenter": 104.3525,
        "meta_mean_anomaly": 256.3858,
        "meta_ephemeris_type": 0,
        "meta_classification_type": "U",
        "meta_norad_cat_id": 34145,
        "meta_element_set_no": 999,
        "meta_rev_at_epoch": 87590,
        "meta_bstar": 0.0016534219,
        "meta_mean_motion_dot": 5.573e-05,
        "meta_mean_motion_ddot": 0,
        "tle_line1": "1 34145U 97051DY  25343.41746559  .00005573  00000+0  16534-2 0  9997",
        "tle_line2": "2 34145  86.2119 334.0058 0055616 104.3525 256.3858 14.42251473875901"
      },
      "geometry": {
        "type": "Point",
        "coordinates": [
          150.12860584455674,
          42.10824597258648
        ]
      }
    },
    {
      "type": "Feature",
      "properties": {
        "norad_id": 34146,
        "name": "IRIDIUM 33 DEB",
        "group": "iridium-33-debris",
        "lat": 77.74925106187402,
        "lon": 8.245183411325348,
        "alt_km": 737.4478216036832,
        "timestamp": "2025-12-10T09:57:45.083077+00:00",
        "meta_object_name": "IRIDIUM 33 DEB",
        "meta_object_id": "1997-051DZ",
        "meta_epoch": "2025-12-10T01:35:00.265056",
        "meta_mean_motion": 14.49018235,
        "meta_eccentricity": 0.0025277,
        "meta_inclination": 86.2836,
        "meta_ra_of_asc_node": 350.9814,
        "meta_arg_of_pericenter": 231.1216,
        "meta_mean_anomaly": 187.2967,
        "meta_ephemeris_type": 0,
        "meta_classification_type": "U",
        "meta_norad_cat_id": 34146,
        "meta_element_set_no": 999,
        "meta_rev_at_epoch": 88068,
        "meta_bstar": 0.0013153,
        "meta_mean_motion_dot": 5.028e-05,
        "meta_mean_motion_ddot": 0,
        "tle_line1": "1 34146U 97051DZ  25344.06597529  .00005028  00000+0  13153-2 0  9990",
        "tle_line2": "2 34146  86.2836 350.9814 0025277 231.1216 187.2967 14.49018235880689"
      },
      "geometry": {
        "type": "Point",
        "coordinates": [
          8.245183411325348,
          77.74925106187402
        ]
      }
    },
    {
      "type": "Feature",
      "properties": {
        "norad_id": 34159,
        "name": "IRIDIUM 33 DEB",
        "group": "iridium-33-debris",
        "lat": -61.06288695751171,
        "lon": -124.13940154643299,
        "alt_km": 760.0447352773881,
        "timestamp": "2025-12-10T09:57:45.083088+00:00",
        "meta_object_name": "IRIDIUM 33 DEB",
        "meta_object_id": "1997-051EN",
        "meta_epoch": "2025-12-10T03:50:01.192128",
        "meta_mean_motion": 14.38483084,
        "meta_eccentricity": 0.0025998,
        "meta_inclination": 86.351,
        "meta_ra_of_asc_node": 49.3414,
        "meta_arg_of_pericenter": 296.9299,
        "meta_mean_anomaly": 62.9244,
        "meta_ephemeris_type": 0,
        "meta_classification_type": "U",
        "meta_norad_cat_id": 34159,
        "meta_element_set_no": 999,
        "meta_rev_at_epoch": 87922,
        "meta_bstar": 0.00055852,
        "meta_mean_motion_dot": 1.73e-05,
        "meta_mean_motion_ddot": 0,
        "tle_line1": "1 34159U 97051EN  25344.15973602  .00001730  00000+0  55852-3 0  9993",
        "tle_line2": "2 34159  86.3510  49.3414 0025998 296.9299  62.9244 14.38483084879229"
      },
      "geometry": {
        "type": "Point",
        "coordinates": [
          -124.13940154643299,
          -61.06288695751171
        ]
      }
    }
  ]
}